{
  "type": "FeatureCollection",
  "features": [
    {
      "type": "Feature",
      "properties": {
        "norad_id": 31760,
        "name": "FENGYUN 1C DEB",
        "group": "fengyun-1c-debris",
        "lat": 60.97278151098931,
        "lon": -65.69823026595442,
        "alt_km": 758.1552714426889,
        "timestamp": "2025-12-24T18:55:56.352507+00:00",
        "meta_object_name": "FENGYUN 1C DEB",
        "meta_object_id": "1999-025CFK",
        "meta_epoch": "2025-12-23T05:26:41.778816",
        "meta_mean_motion": 14.30214072,
        "meta_eccentricity": 0.0053119,
        "meta_inclination": 99.2536,
        "meta_ra_of_asc_node": 95.5573,
        "meta_arg_of_pericenter": 167.4386,
        "meta_mean_anomaly": 192.8132,
        "meta_ephemeris_type": 0,
        "meta_classification_type": "U",
        "meta_norad_cat_id": 31760,
        "meta_element_set_no": 999,
        "meta_rev_at_epoch": 96282,
        "meta_bstar": 0.00070722511,
        "meta_mean_motion_dot": 1.812e-05,
        "meta_mean_motion_ddot": 0,
        "tle_line1": "1 31760U 99025CFK 25357.22687244  .00001812  00000+0  70723-3 0  9992",
        "tle_line2": "2 31760  99.2536  95.5573 0053119 167.4386 192.8132 14.30214072962828"
      },
      "geometry": {
        "type": "Point",
        "coordinates": [
          -65.69823026595442,
          60.97278151098931
        ]
      }
    },
    {
      "type": "Feature",
      "properties": {
        "norad_id": 31761,
        "name": "FENGYUN 1C DEB",
        "group": "fengyun-1c-debris",
        "lat": -72.82564619632959,
        "lon": 12.671647102438204,
        "alt_km": 577.4488327589252,
        "timestamp": "2025-12-24T18:55:56.352518+00:00",
        "meta_object_name": "FENGYUN 1C DEB",
        "meta_object_id": "1999-025CFL",
        "meta_epoch": "2025-12-22T21:13:42.978144",
        "meta_mean_motion": 14.03597534,
        "meta_eccentricity": 0.0471142,
        "meta_inclination": 98.6335,
        "meta_ra_of_asc_node": 220.3003,
        "meta_arg_of_pericenter": 234.743,
        "meta_mean_anomaly": 120.8795,
        "meta_ephemeris_type": 0,
        "meta_classification_type": "U",
        "meta_norad_cat_id": 31761,
        "meta_element_set_no": 999,
        "meta_rev_at_epoch": 58253,
        "meta_bstar": 0.0019114,
        "meta_mean_motion_dot": 8.113e-05,
        "meta_mean_motion_ddot": 0,
        "tle_line1": "1 31761U 99025CFL 25356.88452521  .00008113  00000+0  19114-2 0  9999",
        "tle_line2": "2 31761  98.6335 220.3003 0471142 234.7430 120.8795 14.03597534582532"
      },
      "geometry": {
        "type": "Point",
        "coordinates": [
          12.671647102438204,
          -72.82564619632959
        ]
      }
    },
    {
      "type": "Feature",
      "properties": {
        "norad_id": 31763,
        "name": "FENGYUN 1C DEB",
        "group": "fengyun-1c-debris",
        "lat": 35.205575399116356,
        "lon": -68.40813043258586,
        "alt_km": 1158.921960962688,
        "timestamp": "2025-12-24T18:55:56.352528+00:00",
        "meta_object_name": "FENGYUN 1C DEB",
        "meta_object_id": "1999-025CFN",
        "meta_epoch": "2025-12-24T01:21:59.387040",
        "meta_mean_motion": 13.50350677,
        "meta_eccentricity": 0.0546364,
        "meta_inclination": 98.5205,
        "meta_ra_of_asc_node": 104.8899,
        "meta_arg_of_pericenter": 40.2812,
        "meta_mean_anomaly": 141.7775,
        "meta_ephemeris_type": 0,
        "meta_classification_type": "U",
        "meta_norad_cat_id": 31763,
        "meta_element_set_no": 999,
        "meta_rev_at_epoch": 91158,
        "meta_bstar": 0.00057862124,
        "meta_mean_motion_dot": 9.11e-06,
        "meta_mean_motion_ddot": 0,
        "tle_line1": "1 31763U 99025CFN 25358.05693735  .00000911  00000+0  57862-3 0  9997",
        "tle_line2": "2 31763  98.5205 104.8899 0546364  40.2812 141.7775 13.50350677911588"
      },
      "geometry": {
        "type": "Point",
        "coordinates": [
          -68.40813043258586,
          35.205575399116356
        ]
      }
    },
    {
      "type": "Feature",
      "properties": {
        "norad_id": 31766,
        "name": "FENGYUN 1C DEB",
        "group": "fengyun-1c-debris",
        "lat": -14.076160467468595,
        "lon": -1.4879293915361205,
        "alt_km": 878.6343668423006,
        "timestamp": "2025-12-24T18:55:56.352549+00:00",
        "meta_object_name": "FENGYUN 1C DEB",
        "meta_object_id": "1999-025CFR",
        "meta_epoch": "2025-12-22T05:29:01.188672",
        "meta_mean_motion": 14.05283405,
        "meta_eccentricity": 0.00734706,
        "meta_inclination": 98.8171,
        "meta_ra_of_asc_node": 353.7923,
        "meta_arg_of_pericenter": 264.1767,
        "meta_mean_anomaly": 95.1022,
        "meta_ephemeris_type": 0,
        "meta_classification_type": "U",
        "meta_norad_cat_id": 31766,
        "meta_element_set_no": 999,
        "meta_rev_at_epoch": 64219,
        "meta_bstar": 0.00016407086,
        "meta_mean_motion_dot": 2.28e-06,
        "meta_mean_motion_ddot": 0,
        "tle_line1": "1 31766U 99025CFR 25356.22848598  .00000228  00000+0  16407-3 0  9997",
        "tle_line2": "2 31766  98.8171 353.7923 0073470 264.1767  95.1022 14.05283405642198"
      },
      "geometry": {
        "type": "Point",
        "coordinates": [
          -1.4879293915361205,
          -14.076160467468595
        ]
      }
    },
    {
      "type": "Feature",
      "properties": {
        "norad_id": 31767,
        "name": "FENGYUN 1C DEB",
        "group": "fengyun-1c-debris",
        "lat": -55.73966328221871,
        "lon": 41.32276270603363,
        "alt_km": 885.3492717360778,
        "timestamp": "2025-12-24T18:55:56.352561+00:00",
        "meta_object_name": "FENGYUN 1C DEB",
        "meta_object_id": "1999-025CFS",
        "meta_epoch": "2025-12-23T20:07:06.324096",
        "meta_mean_motion": 14.04959986,
        "meta_eccentricity": 0.00413757,
        "meta_inclination": 98.8205,
        "meta_ra_of_asc_node": 27.2218,
        "meta_arg_of_pericenter": 39.4072,
        "meta_mean_anomaly": 139.1433,
        "meta_ephemeris_type": 0,
        "meta_classification_type": "U",
        "meta_norad_cat_id": 31767,
        "meta_element_set_no": 999,
        "meta_rev_at_epoch": 94981,
        "meta_bstar": 0.00031828952,
        "meta_mean_motion_dot": 4.73e-06,
        "meta_mean_motion_ddot": 0,
        "tle_line1": "1 31767U 99025CFS 25357.83826764  .00000473  00000+0  31829-3 0  9994",
        "tle_line2": "2 31767  98.8205  27.2218 0041375  39.4072 139.1433 14.04959986949815"
      },
      "geometry": {
        "type": "Point",
        "coordinates": [
          41.32276270603363,
          -55.73966328221871
        ]
      }
    },
    {
      "type": "Feature",
      "properties": {
        "norad_id": 31768,
        "name": "FENGYUN 1C DEB",
        "group": "fengyun-1c-debris",
        "lat": -80.51799386235793,
        "lon": -179.3407014437424,
        "alt_km": 632.472205334313,
        "timestamp": "2025-12-24T18:55:56.352572+00:00",
        "meta_object_name": "FENGYUN 1C DEB",
        "meta_object_id": "1999-025CFT",
        "meta_epoch": "2025-12-23T23:00:32.613120",
        "meta_mean_motion": 14.76497395,
        "meta_eccentricity": 0.0026491,
        "meta_inclination": 99.0413,
        "meta_ra_of_asc_node": 72.1632,
        "meta_arg_of_pericenter": 305.2217,
        "meta_mean_anomaly": 232.1518,
        "meta_ephemeris_type": 0,
        "meta_classification_type": "U",
        "meta_norad_cat_id": 31768,
        "meta_element_set_no": 999,
        "meta_rev_at_epoch": 97038,
        "meta_bstar": 0.0024358,
        "meta_mean_motion_dot": 0.0001704,
        "meta_mean_motion_ddot": 0,
        "tle_line1": "1 31768U 99025CFT 25357.95871080  .00017040  00000+0  24358-2 0  9995",
        "tle_line2": "2 31768  99.0413  72.1632 0026491 305.2217 232.1518 14.76497395970380"
      },
      "geometry": {
        "type": "Point",
        "coordinates": [
          -179.3407014437424,
          -80.51799386235793
        ]
      }
    },
    {
      "type": "Feature",
      "properties": {
        "norad_id": 31772,
        "name": "FENGYUN 1C DEB",
        "group": "fengyun-1c-debris",
        "lat": 79.95625904371371,
        "lon": 152.89868858622566,
        "alt_km": 750.5727779007166,
        "timestamp": "2025-12-24T18:55:56.352582+00:00",
        "meta_object_name": "FENGYUN 1C DEB",
        "meta_object_id": "1999-025CFX",
        "meta_epoch": "2025-12-21T17:20:55.932576",
        "meta_mean_motion": 14.11729705,
        "meta_eccentricity": 0.01371811,
        "meta_inclination": 98.4737,
        "meta_ra_of_asc_node": 272.682,
        "meta_arg_of_pericenter": 88.103,
        "meta_mean_anomaly": 273.5847,
        "meta_ephemeris_type": 0,
        "meta_classification_type": "U",
        "meta_norad_cat_id": 31772,
        "meta_element_set_no": 999,
        "meta_rev_at_epoch": 71010,
        "meta_bstar": 0.0008718097,
        "meta_mean_motion_dot": 1.696e-05,
        "meta_mean_motion_ddot": 0,
        "tle_line1": "1 31772U 99025CFX 25355.72286959  .00001696  00000+0  87181-3 0  9992",
        "tle_line2": "2 31772  98.4737 272.6820 0137181  88.1030 273.5847 14.11729705710100"
      },
      "geometry": {
        "type": "Point",
        "coordinates": [
          152.89868858622566,
          79.95625904371371
        ]
      }
    }
  ]
}